<?xml version="1.0" encoding="UTF-8"?>
<kml xmlns="http://www.opengis.net/kml/2.2">
	<Document>
		<name>New track</name>
		<Placemark>
			<name>Ящик-1</name>
			<Point>
				<coordinates>132.828296,44.529392,0</coordinates>
			</Point>
		</Placemark>
		<Placemark>
			<name>Ящик-2</name>
			<Point>
				<coordinates>132.830763,44.525487,0</coordinates>
			</Point>
		</Placemark>
		<Placemark>
			<name>Ящик-3</name>
			<Point>
				<coordinates>132.826214,44.526562,0</coordinates>
			</Point>
		</Placemark>
		<Placemark>
			<name>Ящик-4</name>
			<Point>
				<coordinates>132.830463,44.526145,0</coordinates>
			</Point>
		</Placemark>
		<Placemark>
			<name>Ящик-5 (второй этаж)</name>
			<Point>
				<coordinates>132.828510,44.528898,0</coordinates>
			</Point>
		</Placemark>
		<Placemark>
			<name>Ящик-6</name>
			<Point>
				<coordinates>132.834760,44.525017,0</coordinates>
			</Point>
		</Placemark>
		<Placemark>
			<name>Ящик-7</name>
			<Point>
				<coordinates>132.829444,44.532237,0</coordinates>
			</Point>
		</Placemark>
		<Placemark>
			<name>Ящик-8</name>
			<Point>
				<coordinates>132.837244,44.530780,0</coordinates>
			</Point>
		</Placemark>
		<Placemark>
			<name>Ящик-9</name>
			<Point>
				<coordinates>132.841541,44.525082,0</coordinates>
			</Point>
		</Placemark>
		<Placemark>
			<name>Ящик-10</name>
			<Point>
				<coordinates>132.839309,44.532325,0</coordinates>
			</Point>
		</Placemark>
	</Document>
	</kml>